SKYSAT-C2               
1 41773U 16058D   18311.73860625  .00000490  00000-0  23715-4 0  9998
2 41773  97.4291  20.7172 0001283  84.5252  31.3672 15.23156489119068
SKYSAT-C3               
1 41774U 16058E   18311.75182368  .00000565  00000-0  26921-4 0  9997
2 41774  97.4297  20.7062 0000805  95.3545  23.2742 15.23133294119064
ALSAT 1B                
1 41785U 16059C   18311.83898058 -.00000015  00000-0  63712-5 0  9990
2 41785  98.0989  11.3006 0031626   5.0162 355.1332 14.63300904112964
PATHFINDER 1            
1 41787U 16059E   18311.75300234  .00000048  00000-0  18521-4 0  9999
2 41787  98.1003  11.6872 0030933   3.6724 356.4696 14.63630347112971
SCATSAT 1               
1 41790U 16059H   18311.55271320  .00000024  00000-0  17273-4 0  9991
2 41790  98.2426 356.6105 0018607  15.6250 344.5516 14.50879171111971
WORLDVIEW-4 (WV-4)      
1 41848U 16067A   18311.77383954  .00000034  00000-0  10318-4 0  9999
2 41848  97.8993  27.8308 0002296 124.8867 235.2555 14.84982558107734
GOKTURK 1A              
1 41875U 16073A   18311.67794008  .00000024  00000-0  13823-4 0  9994
2 41875  98.1533 204.1783 0001394  69.5149 290.6207 14.62743211102631
RESOURCESAT-2A          
1 41877U 16074A   18311.77154056 -.00000026  00000-0  80552-5 0  9998
2 41877  98.6595  24.1674 0000574  83.9073 276.2169 14.21655177 99540
CARTOSAT-2D             
1 41948U 17008A   18311.69063078  .00000437  00000-0  23948-4 0  9999
2 41948  97.4293  11.2117 0005136 239.8933 120.1815 15.19271964 95723
SENTINEL-2B             
1 42063U 17013A   18311.81587521 -.00000010  00000-0  12799-4 0  9992
2 42063  98.5682  24.4557 0001220  91.8248 268.3072 14.30817635 87347
ZHUHAI-1 02 (CAS 4B)    
1 42759U 17034B   18311.61486481  .00000135  00000-0  21840-4 0  9992
2 42759  43.0202  15.8124 0011348 285.6793 198.9683 15.09411629 77127
NUSAT-3 (MILANESAT)     
1 42760U 17034C   18311.67658181  .00000200  00000-0  25937-4 0  9992
2 42760  43.0182  16.1631 0010141 291.6414 207.6827 15.09284477 77138
ZHUHAI-1 01 (CAS 4A)    
1 42761U 17034D   18311.65777346  .00000286  00000-0  31068-4 0  9992
2 42761  43.0201  15.2502 0011755 287.6831 209.3090 15.09489191 77128
CARTOSAT-2E             
1 42767U 17036C   18311.89459795  .00002034  00000-0  10000-3 0  9996
2 42767  97.5052   7.6633 0007483 289.5670  70.4026 15.19171472 76325
FORMOSAT-5              
1 42920U 17049A   18311.71417784  .00000286  00000-0  84045-4 0  9992
2 42920  98.3505  26.9860 0009503 337.0574  23.0225 14.50811642 63797
SENTINEL-5P             
1 42969U 17064A   18311.41112729 -.00000031  00000-0  62027-5 0  9996
2 42969  98.7113 249.1216 0001025  81.0029 279.1263 14.19547980 55327
SKYSAT-C11              
1 42987U 17068A   18311.88723930  .00000624  00000-0  30807-4 0  9990
2 42987  97.4163  63.5914 0008381 285.5349  74.4961 15.21475963 56517
SKYSAT-C10              
1 42988U 17068B   18311.76706816  .00000712  00000-0  34702-4 0  9998
2 42988  97.4137  63.3803 0003684 316.0397 177.5191 15.21529341 56495
SKYSAT-C9               
1 42989U 17068C   18311.82228387  .00000691  00000-0  33686-4 0  9994
2 42989  97.4146  63.8342 0001234  76.8065  42.0103 15.21571378 56521
SKYSAT-C8               
1 42990U 17068D   18311.80829457  .00000699  00000-0  34039-4 0  9990
2 42990  97.4156  63.7143 0005451 344.8929 134.6864 15.21591327 56511
SKYSAT-C7               
1 42991U 17068E   18311.80019752  .00000708  00000-0  34490-4 0  9992
2 42991  97.4151  63.7150 0006007   1.4080 120.4652 15.21564182 56514
SKYSAT-C6               
1 42992U 17068F   18311.78986998  .00000774  00000-0  37404-4 0  9996
2 42992  97.4151  63.8950 0012805  44.5203  83.3927 15.21519370 56524
CARTOSAT-2F             
1 43111U 18004A   18311.81807316  .00000607  00000-0  32030-4 0  9996
2 43111  97.4672  11.4233 0003395 324.6169  99.3403 15.19229484 45497
MICROSAT-TD             
1 43128U 18004T   18311.71303611  .00020333  00000-0  16400-3 0  9992
2 43128  96.8406   8.2694 0008968 270.7121  89.3115 15.70855684 47000
NUSAT-4 (ADA)           
1 43195U 18015D   18311.67022347  .00001215  00000-0  53626-4 0  9997
2 43195  97.3693  77.8079 0017958  12.6599 112.2903 15.23528948 42372
NUSAT-5 (MARYAM)        
1 43204U 18015K   18311.86175169  .00001244  00000-0  54778-4 0  9991
2 43204  97.3695  78.0068 0018263  11.8296 105.3809 15.23562457 42002
SENTINEL-3B             
1 43437U 18039A   18311.58547326 -.00000106  00000-0 -25122-4 0  9991
2 43437  98.6250  16.6579 0004439 219.1617 140.9243 14.28053368 27916
AEOLUS                  
1 43600U 18066A   18310.66572830 -.00000138  00000-0  00000+0 0  9996
2 43600  96.7292 315.7649 0005491  55.8176 304.4617 15.86872084 12003
ICESAT-2                
1 43613U 18070A   18311.42645223  .00001563  00000-0  56638-4 0  9992
2 43613  92.0003 262.9730 0002945  83.4889 276.6696 15.28264021  8081
